0 DIRECTV 8
1 28659U 05019A   13281.59071458 -.00000127  00000-0  00000+0 0  7986
2 28659 000.0397 078.6187 0003650 105.7462 304.8437 01.00272005 30714
0 DIRECTV 8
1 28659U 05019A   13284.45342997 -.00000136  00000-0  00000+0 0  7994
2 28659 000.0422 070.8783 0003597 122.1270 249.5998 01.00271926 30740
0 DIRECTV 8
1 28659U 05019A   13287.45512306 -.00000141  00000-0  00000+0 0  8009
2 28659 000.0253 327.1705 0003649 225.8812 253.1059 01.00271187 30776
0 DIRECTV 8
1 28659U 05019A   13290.35101266 -.00000138  00000-0  00000+0 0  8018
2 28659 000.0225 327.0200 0003577 235.3213 209.1836 01.00271369 30805
0 DIRECTV 8
1 28659U 05019A   13291.41418980 -.00000135  00000-0  00000+0 0  8028
2 28659 000.0215 329.5697 0003583 233.8306 231.9201 01.00271603 30815
0 DIRECTV 8
1 28659U 05019A   13292.47731226 -.00000133  00000-0  00000+0 0  8035
2 28659 000.0208 332.1355 0003570 229.8155 257.1428 01.00271630 30823
0 DIRECTV 8
1 28659U 05019A   13293.31476384 -.00000132  00000-0  00000+0 0  8040
2 28659 000.0208 343.9321 0003840 221.1021 196.3695 01.00271687 30836
0 DIRECTV 8
1 28659U 05019A   13295.40555304 -.00000128  00000-0  00000+0 0  8058
2 28659 000.0177 293.3469 0003621 271.4762 231.3273 01.00271974 30852
